
# Worst residual: 5.39 km
# MJD 58534.000000 (2019 Feb 20  0:00)
2011-037B = TA29DCF = Spektr-R booster
1 99999U 11037B   19051.49919926  .00000000  00000-0  00000-0 2  5002
2 99999 056.0035 117.7351 7270793 180.8256 025.5911 00.11605716    06

# Worst residual: 7.05 km
# MJD 58535.000000 (2019 Feb 21  0:00)
2011-037B = TA29DCF = Spektr-R booster
1 99999U 11037B   19052.49919926  .00000000  00000-0  00000-0 2  5003
2 99999 056.0171 117.7171 7266766 180.7662 067.5972 00.11639174    00

# Worst residual: 5.37 km
# MJD 58536.000000 (2019 Feb 22  0:00)
2011-037B = TA29DCF = Spektr-R booster
1 99999U 11037B   19053.49919926  .00000000  00000-0  00000-0 2  5004
2 99999 056.0386 117.7055 7261502 180.7380 109.7222 00.11652655    05

# Worst residual: 3.94 km
# MJD 58537.000000 (2019 Feb 23  0:00)
2011-037B = TA29DCF = Spektr-R booster
1 99999U 11037B   19054.49919926  .00000000  00000-0  00000-0 2  5005
2 99999 056.0811 117.6951 7256709 180.7258 151.8042 00.11653433    02

# Worst residual: 3.46 km
# MJD 58538.000000 (2019 Feb 24  0:00)
2011-037B = TA29DCF = Spektr-R booster
1 99999U 11037B   19055.49919926  .00000000  00000-0  00000-0 2  5006
2 99999 056.1372 117.6932 7252610 180.7286 193.7522 00.11649565    01

# Worst residual: 5.25 km
# MJD 58539.000000 (2019 Feb 25  0:00)
2011-037B = TA29DCF = Spektr-R booster
1 99999U 11037B   19056.49919926  .00000000  00000-0  00000-0 2  5007
2 99999 056.1888 117.7020 7250039 180.7459 235.5789 00.11649962    08

# Worst residual: 6.84 km
# MJD 58540.000000 (2019 Feb 26  0:00)
2011-037B = TA29DCF = Spektr-R booster
1 99999U 11037B   19057.49919926  .00000000  00000-0  00000-0 2  5008
2 99999 056.2239 117.7165 7249581 180.7898 277.3630 00.11661823    05

# Worst residual: 6.57 km
# MJD 58541.000000 (2019 Feb 27  0:00)
2011-037B = TA29DCF = Spektr-R booster
1 99999U 11037B   19058.49919926  .00000000  00000-0  00000-0 2  5009
2 99999 056.2391 117.7289 7250547 180.8725 319.2361 00.11687817    03

# Worst residual: 2.28 km
# MJD 58542.000000 (2019 Feb 28  0:00)
2011-037B = TA29DCF = Spektr-R booster
1 99999U 11037B   19059.49919926  .00000000  00000-0  00000-0 2  5000
2 99999 056.2412 117.7297 7251163 180.9263 001.3126 00.11700201    00

# Worst residual: 6.09 km
# MJD 58543.000000 (2019 Mar  1  0:00)
2011-037B = TA29DCF = Spektr-R booster
1 99999U 11037B   19060.49919926  .00000000  00000-0  00000-0 2  5002
2 99999 056.2455 117.7201 7248442 180.9441 043.4693 00.11708218    08

# Worst residual: 8.27 km
# MJD 58544.000000 (2019 Mar  2  0:00)
2011-037B = TA29DCF = Spektr-R booster
1 99999U 11037B   19061.49919926  .00000000  00000-0  00000-0 2  5003
2 99999 056.2492 117.7156 7240251 181.0646 085.4993 00.11686104    05

# Worst residual: 12.37 km
# MJD 58545.000000 (2019 Mar  3  0:00)
2011-037B = TA29DCF = Spektr-R booster
1 99999U 11037B   19062.49919926  .00000000  00000-0  00000-0 2  5004
2 99999 056.2053 117.7316 7225317 181.1897 127.3264 00.11656803    01

# Worst residual: 15.23 km
# MJD 58546.000000 (2019 Mar  4  0:00)
2011-037B = TA29DCF = Spektr-R booster
1 99999U 11037B   19063.49919926  .00000000  00000-0  00000-0 2  5005
2 99999 056.0953 117.7464 7206848 181.2832 168.9867 00.11631091    02

# Worst residual: 16.67 km
# MJD 58547.000000 (2019 Mar  5  0:00)
2011-037B = TA29DCF = Spektr-R booster
1 99999U 11037B   19064.49919926  .00000000  00000-0  00000-0 2  5006
2 99999 055.9310 117.7348 7188647 181.3462 210.5480 00.11614207    09

# Worst residual: 16.20 km
# MJD 58548.000000 (2019 Mar  6  0:00)
2011-037B = TA29DCF = Spektr-R booster
1 99999U 11037B   19065.49919926  .00000000  00000-0  00000-0 2  5007
2 99999 055.7484 117.6819 7173998 181.3973 252.0900 00.11609197    01

# Worst residual: 13.95 km
# MJD 58549.000000 (2019 Mar  7  0:00)
2011-037B = TA29DCF = Spektr-R booster
1 99999U 11037B   19066.49919926  .00000000  00000-0  00000-0 2  5008
2 99999 055.5921 117.5893 7164978 181.4598 293.7048 00.11616803    05

# Worst residual: 8.07 km
# MJD 58550.000000 (2019 Mar  8  0:00)
2011-037B = TA29DCF = Spektr-R booster
1 99999U 11037B   19067.49919926  .00000000  00000-0  00000-0 2  5009
2 99999 055.5218 117.5010 7161253 181.5441 335.4533 00.11636691    06

# Worst residual: 4.58 km
# MJD 58551.000000 (2019 Mar  9  0:00)
2011-037B = TA29DCF = Spektr-R booster
1 99999U 11037B   19068.49919926  .00000000  00000-0  00000-0 2  5000
2 99999 055.5185 117.4787 7159943 181.5724 017.3607 00.11647933    05

# Worst residual: 8.24 km
# MJD 58552.000000 (2019 Mar 10  0:00)
2011-037B = TA29DCF = Spektr-R booster
1 99999U 11037B   19069.49919926  .00000000  00000-0  00000-0 2  5001
2 99999 055.5314 117.4535 7155315 181.5374 059.4707 00.11677932    00

# Worst residual: 12.13 km
# MJD 58553.000000 (2019 Mar 11  0:00)
2011-037B = TA29DCF = Spektr-R booster
1 99999U 11037B   19070.49919926  .00000000  00000-0  00000-0 2  5003
2 99999 055.5186 117.4601 7147694 181.4895 101.8049 00.11698058    02

# Worst residual: 13.20 km
# MJD 58554.000000 (2019 Mar 12  0:00)
2011-037B = TA29DCF = Spektr-R booster
1 99999U 11037B   19071.49919926  .00000000  00000-0  00000-0 2  5004
2 99999 055.4894 117.4686 7138930 181.4227 144.2802 00.11706057    09

# Worst residual: 11.21 km
# MJD 58555.000000 (2019 Mar 13  0:00)
2011-037B = TA29DCF = Spektr-R booster
1 99999U 11037B   19072.49919926  .00000000  00000-0  00000-0 2  5005
2 99999 055.5179 117.4684 7132556 181.3310 186.8304 00.11704649    08

# Worst residual: 20.87 km
# MJD 58556.000000 (2019 Mar 14  0:00)
2011-037B = TA29DCF = Spektr-R booster
1 99999U 11037B   19073.49919926  .00000000  00000-0  00000-0 2  5006
2 99999 055.7088 117.5022 7133828 181.2234 229.3304 00.11698639    07

# Worst residual: 24.87 km
# MJD 58557.000000 (2019 Mar 15  0:00)
2011-037B = TA29DCF = Spektr-R booster
1 99999U 11037B   19074.49919926  .00000000  00000-0  00000-0 2  5007
2 99999 056.0741 117.6537 7148688 181.2086 271.4878 00.11715779    03

# Worst residual: 23.87 km
# MJD 58558.000000 (2019 Mar 16  0:00)
2011-037B = TA29DCF = Spektr-R booster
1 99999U 11037B   19075.49919926  .00000000  00000-0  00000-0 2  5008
2 99999 056.2758 117.8084 7164248 181.4453 313.4162 00.11790672    00
